[{"OBJECT_NAME":"LYNK TOWER 6","OBJECT_ID":"2024-043AB","EPOCH":"2026-03-09T21:28:38.303328","MEAN_MOTION":15.29548678,"ECCENTRICITY":0.00097492,"INCLINATION":97.5426,"RA_OF_ASC_NODE":204.1954,"ARG_OF_PERICENTER":232.0253,"MEAN_ANOMALY":128.0107,"EPHEMERIS_TYPE":0,"CLASSIFICATION_TYPE":"U","NORAD_CAT_ID":59123,"ELEMENT_SET_NO":999,"REV_AT_EPOCH":11184,"BSTAR":0.00040142146,"MEAN_MOTION_DOT":0.0001144,"MEAN_MOTION_DDOT":0},{"OBJECT_NAME":"STARLINK-35667","OBJECT_ID":"2025-257W","EPOCH":"2026-03-09T16:52:41.915424","MEAN_MOTION":15.30198713,"ECCENTRICITY":9.768e-5,"INCLINATION":53.1578,"RA_OF_ASC_NODE":217.0941,"ARG_OF_PERICENTER":79.8419,"MEAN_ANOMALY":280.2692,"EPHEMERIS_TYPE":0,"CLASSIFICATION_TYPE":"U","NORAD_CAT_ID":66400,"ELEMENT_SET_NO":999,"REV_AT_EPOCH":1973,"BSTAR":0.0012346287,"MEAN_MOTION_DOT":0.00036385,"MEAN_MOTION_DDOT":0}]
