LYNK TOWER 6            
1 59123U 24043AB  26068.89488777  .00011440  00000+0  40142-3 0  9996
2 59123  97.5426 204.1954 0009749 232.0253 128.0107 15.29548678111845
STARLINK-35667          
1 66400U 25257W   26068.70326291  .00036385  00000+0  12346-2 0  9991
2 66400  53.1578 217.0941 0000976  79.8419 280.2692 15.30198713 19738
